LEMUR-2-FINNIAN         
1 66782U 25276DX  26200.75609729  .00001294  00000+0  10689-3 0  9998
2 66782  97.5356 270.7347 0007080 342.5290  17.5690 15.00644953 24883
LEMUR-2-STARLIGHT       
1 66783U 25276DY  26201.14094587  .00003829  00000+0  31682-3 0  9995
2 66783  97.5235 270.6546 0014613  32.3707 327.8410 14.99392316 35134
LEMUR-2-TARTIFLETTE     
1 66784U 25276DZ  26201.13940333  .00003673  00000+0  30428-3 0  9998
2 66784  97.5233 270.6609 0013844  41.0576 319.1687 14.99374313 35136
LEMUR-2-VUKASIN         
1 66785U 25276EA  26201.43922283  .00002594  00000+0  21008-3 0  9991
2 66785  97.5203 271.3173 0002223  36.6135 323.5241 15.00572193 35132
LEMUR-2-HOTSPUR-TOM     
1 66786U 25276EB  26201.20087849  .00003158  00000+0  26302-3 0  9996
2 66786  97.5212 270.6925 0013598  32.6482 327.5580 14.99271112 35075
LEMUR-2-MYRA            
1 66787U 25276EC  26201.13755010  .00003359  00000+0  26940-3 0  9992
2 66787  97.5221 270.9458 0018573  39.1220 321.1343 15.00621723 35156
LEMUR-2 FIKRETDENGIZ    
1 67363U 26004A   26201.00772788  .00002359  00000+0  25937-3 0  9994
2 67363  97.8034 199.0680 0009846  42.2614 317.9360 14.88536708 28163
TWILIGHT-1 OBJECT B     
1 67364U 26004B   26201.45075115  .00000950  00000+0  10993-3 0  9995
2 67364  97.8078 199.5022 0009351  30.6390 329.5370 14.87803916 28235
LEMUR-2-MARIO-SOUSA     
1 67365U 26004C   26200.98690510  .00002125  00000+0  23306-3 0  9993
2 67365  97.8007 199.0425 0009488  43.7275 316.4692 14.88748918 28174
LEMUR-2-SONNENBLUME     
1 67367U 26004E   26200.99065348  .00001330  00000+0  14904-3 0  9992
2 67367  97.8003 199.0165 0009124  44.7510 315.4441 14.88467068 28178
LEMUR-2-WOBLER          
1 67368U 26004F   26201.44963783  .00002056  00000+0  22582-3 0  9991
2 67368  97.8057 199.6250 0009074  35.0859 325.0954 14.88719627 28247
LEMUR-2-GRAM-E-SUE      
1 67370U 26004H   26201.44216675  .00001283  00000+0  14353-3 0  9993
2 67370  97.7991 199.4781 0008296  46.5776 313.6130 14.88603335 28240
LEMUR-2-KATIE           
1 67387U 26004AA  26200.99040706  .00002278  00000+0  24031-3 0  9999
2 67387  97.8049 199.6005 0003044  21.7882 338.3465 14.90273384 28192
LEMUR-2-HCS-BAZUS       
1 67388U 26004AB  26201.25730256  .00002023  00000+0  21401-3 0  9992
2 67388  97.8038 199.8419 0002519  22.6097 337.5231 14.90282861 28233
